#aV2014  7 25  0  0  0.00000000     288 DD+AD WGS84 FIT  NGA
## 1802 432000.00000000   300.00000000 56863 0.0000000000000
+   31     1  2  3  4  5  6  7  8 10 11 12 13 14 15 16 17 18
+         19 20 21 22 23 24 25 26 27 28 29 30 31 32  0  0  0
+          0  0  0  0  0  0  0  0  0  0  0  0  0  0  0  0  0
+          0  0  0  0  0  0  0  0  0  0  0  0  0  0  0  0  0
+          0  0  0  0  0  0  0  0  0  0  0  0  0  0  0  0  0
++         2  2  2  2  2  2  2  2  2  2  2  2  2  2  2  2  2
++         2  2  2  2  2  2  2  2  2  2  2  2  2  2  0  0  0
++         0  0  0  0  0  0  0  0  0  0  0  0  0  0  0  0  0
++         0  0  0  0  0  0  0  0  0  0  0  0  0  0  0  0  0
++         0  0  0  0  0  0  0  0  0  0  0  0  0  0  0  0  0
%c cc cc ccc ccc cccc cccc cccc cccc ccccc ccccc ccccc ccccc
%c cc cc ccc ccc cccc cccc cccc cccc ccccc ccccc ccccc ccccc
%f  0.0000000  0.000000000  0.00000000000  0.000000000000000
%f  0.0000000  0.000000000  0.00000000000  0.000000000000000
%i    0    0    0    0      0      0      0      0         0
%i    0    0    0    0      0      0      0      0         0
/*      NGA, ST. LOUIS,MO.                                  
/*   EPHEMERIS COMPUTED FROM  1 DAYS OF DATA                
/*   EPOCHA SMOOTHER                                       
/* CCCCCCCCCCCCCCCCCCCCCCCCCCCCCCCCCCCCCCCCCCCCCCCCCCCCCCCCC
*  2014  7 25  7 25  0.00000000
P  1 -13334.857183  12085.827978  19446.495964     18.350434                    
V  1  -1836.840392 -24787.096356  14265.377452      0.007582                    
P  2  13608.179551  14407.729798 -17602.894605    508.713951                    
V  2   -607.578048  22901.393431  17485.413832      0.021847                    
P  3 -25483.621915  -5011.116311   5337.556378    395.133223                    
V  3  -5898.204341  -5696.066064 -30192.499287      0.051806                    
P  4   -543.955096  26294.581592   2001.205779      7.281700                    
V  4  -3861.543319  -2807.212358  31303.012546     -0.001213                    
P  5  19749.024837   2751.333566 -17661.274052   -355.213184                    
V  5 -18071.352483  13249.070008 -18012.108938      0.032141                    
P  6   7482.466741  23555.835466  -9748.697284     -1.451501                    
V  6  -2144.940265  12427.500418  28400.742472     -0.019887                    
P  7  -6913.602757  23296.631146 -10209.175190    372.563484                    
V  7  -2450.667647 -13175.246205 -28531.436667      0.042821                    
P  8  -4864.862997  25487.697464  -3578.566703     14.905867                    
V  8  -1703.190391  -5011.530005 -32523.402398      0.001738                    
P 10   5508.438034  14974.094287 -21541.852274   -135.091810                    
V 10 -23206.956337  13153.190259   3685.288656     -0.015909                    
P 11 -15884.898009   4379.610560  20337.599456   -507.989663                    
V 11  -9154.961859 -25705.520081  -1380.157643     -0.030933                    
P 12  23970.539871 -10449.033991   3846.770155    220.377270                    
V 12  -3333.612527   4285.507430  31991.057939      0.025601                    
P 13 -10306.383647  10946.386583 -22028.337256    -24.081010                    
V 13 -22633.618284 -15813.559958   2576.973709     -0.039208                    
P 14  -8763.067990 -19145.717538  16511.597456    151.206662                    
V 14  18006.319833   9824.764133  21091.549167     -0.035711                    
P 15  23357.930725   1034.752359  12817.108003   -192.975707                    
V 15  13424.507898   9646.365719 -24837.133115     -0.022025                    
P 16 -19479.828195  -3070.594262 -18021.488102   -205.540576                    
V 16  19484.668469 -11426.345798 -18827.309747      0.022872                    
P 17   9232.428508  18877.745291  16637.902721   -111.521179                    
V 17 -18338.533433  -9337.099597  20880.449040     -0.028191                    
P 18  11745.227708 -19586.410172  13749.148417    333.719450                    
V 18  15994.414589  -6352.526022 -23838.197291      0.024239                    
P 19 -23386.442751  -6440.499111  11176.869766   -469.984878                    
V 19 -10730.042595  -9597.740861 -27155.726712     -0.020083                    
P 20 -21971.828540  14833.652352    674.739623    214.442840                    
V 20  -1398.498485  -3867.090507  30996.365876      0.042173                    
P 21   3075.079082 -25458.894225  -5314.809270   -374.576936                    
V 21   4316.149268   7530.340711 -30403.600867     -0.021521                    
P 22  -1449.046753 -17239.179531  20336.613870    253.068890                    
V 22  22307.593065 -12472.397582  -9246.543837      0.032280                    
P 23 -18845.460925   4419.268346 -18252.193152    -39.245967                    
V 23 -19648.168232 -12596.700730  16700.262168     -0.029775                    
P 24  14446.364744  -7696.470930  20878.261346    -32.387618                    
V 24   1831.565916  26542.632804   8602.199068     -0.005943                    
P 25  18571.250163 -17372.425889  -7498.776272     24.494481                    
V 25   9230.786545  -3002.012336  30256.768868     -0.003472                    
P 26  22972.638625  13119.652919   3040.311408      3.027555                    
V 26   2599.333880   4416.480680 -31566.485617     -0.127347                    
P 27 -23517.619934 -12415.985913    387.718013      0.468390                    
V 27    818.105832  -2577.373632 -31782.521763      0.029881                    
P 28  -4101.244537  17304.779799  20290.564775    372.177085                    
V 28 -21974.508348  10662.166544 -14082.169121      0.029014                    
P 29   9623.449696 -11628.208974 -21821.274338    549.075141                    
V 29  23531.565464  14717.149648   2575.554692      0.026338                    
P 30  -1274.969255  26505.209567    156.136939    -38.163163                    
V 30  -2929.127928     53.890561 -31739.714997     -0.060611                    
P 31  -7506.985739 -22579.886199 -11316.323462    333.273270                    
V 31   2283.172272 -14675.264072  27700.358424     -0.002403                    
P 32 -23540.851187   2530.086740  11512.661154   -377.773084                    
V 32  11801.774896  -9429.436034  26849.917406      0.083802                    
EOF
